C
ANIK G1                 
1 39127U 13014A   21078.19694322 -.00000075  00000-0  00000+0 0  9997
2 39127   0.0359 249.5637 0001576  66.2909 184.6774  1.00272643 29034
CHINASAT 11 (ZX 11)     
1 39157U 13020A   21077.92321238 -.00000292  00000-0  00000-0 0  9992
2 39157   0.0228 251.8271 0002230  99.5853 255.6270  1.00270632 28931
EUTELSAT 7B             
1 39163U 13022A   21078.16039802  .00000047  00000-0  00000+0 0  9997
2 39163   0.0664 356.3189 0005884   2.0535 243.2760  1.00271255 28754
WGS F5 (USA 243)        
1 39168U 13024A   21078.23023719 -.00000285  00000-0  00000+0 0  9997
2 39168   0.0208 166.9026 0000377 138.2294 262.2395  1.00272814 28616
SES-6                   
1 39172U 13026A   21077.82385296 -.00000262  00000-0  00000-0 0  9995
2 39172   0.0539 297.0061 0001689  64.9038  70.7403  1.00271787 28509
IRNSS-1A                
1 39199U 13034A   21077.12506853  .00000096  00000-0  00000-0 0  9994
2 39199  31.4321  92.4318 0020142 190.9925 352.7345  1.00279042 28147
MUOS-2                  
1 39206U 13036A   21078.40601778  .00000065  00000-0  00000+0 0  9994
2 39206   2.5424   6.4838 0050893 180.7174 319.1213  1.00266424 28095
ALPHASAT                
1 39215U 13038A   21078.07271738  .00000135  00000-0  00000+0 0  9996
2 39215   2.5516  17.8683 0001862 341.0612 228.9167  1.00271419 28053
INSAT-3D                
1 39216U 13038B   21077.94905670 -.00000157  00000-0  00000-0 0  9997
2 39216   0.0324 107.6923 0001444 267.0106 225.7246  1.00272248 27884
WGS F6 (USA 244)        
1 39222U 13041A   21077.67983014  .00000088  00000-0  00000-0 0  9998
2 39222   0.0180 191.6209 0000156  57.4752  36.8723  1.00272540 26838
ES'HAIL 1               
1 39233U 13044A   21077.76577419  .00000142  00000-0  00000-0 0  9992
2 39233   0.0633   0.3069 0002156 355.7225 121.6950  1.00269601 27429
GSAT-7                  
1 39234U 13044B   21077.94427074 -.00000078  00000-0  00000-0 0  9993
2 39234   0.0100 193.4162 0007260  96.7738 300.4371  1.00272102 26118
AMOS-4                  
1 39237U 13045A   21077.77757804  .00000006  00000-0  00000-0 0  9995
2 39237   0.0255 130.1847 0002561 229.0258 162.2350  1.00272977 27748
AEHF-3 (USA 246)        
1 39256U 13050A   21077.94044720 -.00000356  00000-0  00000-0 0  9996
2 39256   0.7568  46.9310 0005942 309.2245 270.2025  1.00271346 26450
ASTRA 2E                
1 39285U 13056A   21078.07271738  .00000150  00000-0  00000+0 0  9990
2 39285   0.0790  49.0310 0002071 305.7841 236.6846  1.00274269 27375
FM-6                    
1 39360U 13058A   21077.64675146 -.00000018  00000-0  00000-0 0  9994
2 39360   0.0291 258.7929 0001059 308.1036  86.1737  1.00273205 26845
RADUGA-1M 3             
1 39375U 13062A   21077.27480084  .00000154  00000-0  00000-0 0  9999
2 39375   1.1034  94.9815 0001482 279.4204 295.6088  1.00273041 26900
SES-8                   
1 39460U 13071A   21077.82807240 -.00000271  00000-0  00000-0 0  9993
2 39460   0.0259 228.4341 0001754 141.2598 199.9902  1.00273833 25239
INMARSAT 5-F1           
1 39476U 13073A   21078.02510469  .00000028  00000-0  00000+0 0  9997
2 39476   0.0177 172.1308 0000389 335.1900 101.1076  1.00268625 26711
TKSAT-1 (TUPAC KATARI)  
1 39481U 13075A   21078.20948567 -.00000196  00000-0  00000+0 0  9996
2 39481   0.0399  78.8453 0002828 277.8233 168.5148  1.00272837 26635
EXPRESS-AM5             
1 39487U 13077A   21078.49355023 -.00000281  00000-0  00000+0 0  9999
2 39487   0.0400 316.6549 0001009 150.8544  27.4298  1.00271051 27141
GSAT-14                 
1 39498U 14001A   21078.09215907 -.00000078  00000-0  00000+0 0  9995
2 39498   0.0408 250.6339 0003434  44.4529 348.9196  1.00272262 26366
THAICOM 6               
1 39500U 14002A   21077.89327681 -.00000122  00000-0  00000-0 0  9991
2 39500   0.0633 123.2166 0001951 295.2362 158.2839  1.00272331 26246
TDRS 12                 
1 39504U 14004A   21077.46487733 -.00000271  00000-0  00000+0 0  9999
2 39504   4.3258 340.8426 0001543  59.3530 262.4823  1.00273081 26221
ABS-2                   
1 39508U 14006A   21078.25049510 -.00000087  00000-0  00000+0 0  9995
2 39508   0.0325 317.3684 0003950  35.9888 348.7227  1.00273772 26119
ATHENA-FIDUS            
1 39509U 14006B   21078.25604950  .00000153  00000-0  00000+0 0  9994
2 39509   0.0111 185.4023 0001594 202.8095 278.7834  1.00275306 26280
TURKSAT 4A              
1 39522U 14007A   21078.25604950  .00000145  00000-0  00000+0 0  9991
2 39522   0.0605 271.6794 0003982  41.1142 358.3977  1.00275904 25990
EXPRESS-AT1             
1 39612U 14010A   21078.52757748  .00000078  00000-0  00000+0 0  9994
2 39612   0.0392 317.0638 0000554 190.1302 275.9952  1.00272494 25842
EXPRESS-AT2             
1 39613U 14010B   21078.49355023 -.00000282  00000-0  00000+0 0  9999
2 39613   0.0429 314.7381 0000311 145.5708  34.4531  1.00271924 25677
AMAZONAS 4A             
1 39616U 14011A   21078.42172325 -.00000253  00000-0  00000+0 0  9996
2 39616   0.1120  81.5254 0003305 273.3153 260.1335  1.00275060 25650
ASTRA 5B                
1 39617U 14011B   21077.83815965  .00000154  00000-0  00000-0 0  9995
2 39617   0.0518 334.8200 0002849  21.1494 153.8784  1.00275821 25454
IRNSS-1B                
1 39635U 14017A   21077.12498130  .00000102  00000-0  00000-0 0  9997
2 39635  28.8456 272.6809 0019911 175.3318 187.8997  1.00269805 25573
LUCH 5V                 
1 39727U 14023A   21078.17131509 -.00000269  00000-0  00000+0 0  9990
2 39727   0.5457  44.8212 0004119  13.1155 275.3949  1.00271606543298
KAZSAT-3                
1 39728U 14023B   21078.14370523  .00000060  00000-0  00000+0 0  9997
2 39728   0.0195 201.0055 0000180 146.4461 299.6603  1.00274350 25222
EUTELSAT 3B             
1 39773U 14030A   21077.83248932  .00000019  00000-0  00000-0 0  9993
2 39773   0.0620   6.3977 0002379 181.6762 291.2947  1.00272591 24853
USA 254                 
1 40100U 14043B   21068.38281397 -.00000373  00000-0  00000+0 0  9998
2 40100   0.0352  65.9499 0000140  87.9524 279.8230  1.00134519  8451
ASIASAT 8 (AMOS-7)      
1 40107U 14046A   21078.13452265 -.00000034  00000-0  00000+0 0  9990
2 40107   0.0073 182.5396 0001911 186.0140 212.8691  1.00272246 24289
ASIASAT 6               
1 40141U 14052A   21077.74355038 -.00000363  00000-0  00000-0 0  9997
2 40141   0.0241 133.2336 0000453 242.5918 188.2347  1.00269510 23948
OPTUS 10                
1 40146U 14054A   21077.86302189 -.00000148  00000-0  00000+0 0  9996
2 40146   0.0321 191.4860 0001990 162.7828 289.0433  1.00271306 23908
MEASAT-3B               
1 40147U 14054B   21078.04494069 -.00000242  00000-0  00000+0 0  9992
2 40147   0.0364  34.2702 0002933 349.1201 261.0973  1.00271007 23951
LUCH (OLYMP)            
1 40258U 14058A   21077.83030844 -.00000067  00000-0  00000-0 0  9998
2 40258   0.0307 263.4297 0000980 115.8286  88.1734  1.00272797 21786
HIMAWARI-8              
1 40267U 14060A   21077.55257525 -.00000277  00000-0  00000-0 0  9990
2 40267   0.0371 187.0756 0000655 184.0435 144.7817  1.00272123 23541
IRNSS-1C                
1 40269U 14061A   21077.99204153 -.00000161  00000-0  00000+0 0  9991
2 40269   2.1546 154.4652 0017650  11.2933  91.1484  1.00271167 23610
INTELSAT 30 (IS-30)     
1 40271U 14062A   21077.41889843 -.00000152  00000-0  00000+0 0  9997
2 40271   0.0190 179.3270 0001821 314.6723  97.9375  1.00266952 23548
ARSAT 1                 
1 40272U 14062B   21078.03295514 -.00000261  00000-0  00000+0 0  9994
2 40272   0.0098 144.8445 0001596 191.3221 140.6710  1.00273624 23676
EXPRESS-AM6             
1 40277U 14064A   21078.47132581  .00000097  00000-0  00000+0 0  9999
2 40277   0.0533 298.3260 0000679 103.9346 357.6441  1.00274283 23463
GSAT-16                 
1 40332U 14078A   21078.24632804  .00000085  00000-0  00000+0 0  9991
2 40332   0.0382 267.5599 0004775 162.6951 250.4943  1.00269793 23046
DIRECTV 14              
1 40333U 14078B   21078.20180181 -.00000126  00000-0  00000+0 0  9991
2 40333   0.0136 165.0528 0000429 152.6336 192.6520  1.00271439 23033
YAMAL 401               
1 40345U 14082A   21078.35232309 -.00000230  00000-0  00000+0 0  9991
2 40345   0.0097 179.3030 0001114 268.8620 305.7253  1.00275456 23208
ASTRA 2G                
1 40364U 14089A   21078.07271738  .00000149  00000-0  00000+0 0  9995
2 40364   0.0120 279.4588 0003844 105.6941 206.0624  1.00266554 22801
FENGYUN 2G              
1 40367U 14090A   21078.30743800 -.00000302  00000-0  00000+0 0  9992
2 40367   0.8104  92.8621 0001594 303.5691 350.6838  1.00282000 22830
MUOS-3                  
1 40374U 15002A   21077.82873817 -.00000129  00000-0  00000-0 0  9990
2 40374   2.6242 355.5402 0051231 177.2379 286.6806  1.00272502 22377
INMARSAT 5-F2           
1 40384U 15005A   21078.51021178 -.00000286  00000-0  00000+0 0  9999
2 40384   0.0213 165.8828 0000360  96.0302  44.0319  1.00269143 22465
ABS-3A                  
1 40424U 15010A   21078.23452104 -.00000027  00000-0  00000+0 0  9999
2 40424   0.0069 183.0786 0002141 100.1365 335.2713  1.00269681 22188
EUTELSAT 115 WEST B     
1 40425U 15010B   21078.48383941 -.00000026  00000-0  00000+0 0  9998
2 40425   0.0186 336.9828 0000191 101.0817 158.4568  1.00272326 22228
EXPRESS-AM7             
1 40505U 15012A   21077.98340515  .00000150  00000-0  00000+0 0  9990
2 40505   0.0043 176.4264 0003036 168.9714 225.3341  1.00272352 22142
IRNSS-1D                
1 40547U 15018A   21078.10650959 -.00000278  00000-0  00000+0 0  9995
2 40547  28.6924 272.7273 0019909 177.0462 237.1186  1.00277230 22035
BEIDOU 17               
1 40549U 15019A   21078.03806753 -.00000162  00000-0  00000+0 0  9997
2 40549  52.6363 318.0340 0036408 187.5854 140.7599  1.00285812 21866
THOR 7                  
1 40613U 15022A   21078.29826580 -.00000009  00000-0  00000+0 0  9991
2 40613   0.0099 181.6454 0002745 171.0184 291.1069  1.00271578 21601
TURKMENALEM52E/MONACOSAT
1 40617U 15023A   21077.76577419  .00000103  00000-0  00000-0 0  9996
2 40617   0.0144 129.8372 0002939 230.5908 143.7727  1.00272477 21623
